KUIPER-00008            
1 63724U 25088A   25219.80501669  .00004373  00000+0  38082-3 0  9999
2 63724  51.8918 342.0557 0011631 100.2634 259.9648 14.98716104 15976
KUIPER-00009            
1 63725U 25088B   25220.58335648 -.00015165  00000+0 -90939-3 0  9991
2 63725  51.8831 331.3077 0011248 125.4148  91.2460 15.09813502 16188
KUIPER-00010            
1 63726U 25088C   25219.78556053  .00016435  00000+0  46576-3 0  9994
2 63726  51.8648 331.7888 0009208 113.4118 246.7837 15.36353736 15739
KUIPER-00011            
1 63727U 25088D   25219.62117831  .00014487  00000+0  41853-3 0  9993
2 63727  51.8587 332.8652 0010627 121.5398 238.6627 15.35844113 15842
KUIPER-00012            
1 63728U 25088E   25219.61829592  .00015864  00000+0  45520-3 0  9992
2 63728  51.8562 332.8329 0010854 122.8072 237.3961 15.35977072 15794
KUIPER-00013            
1 63729U 25088F   25220.16668981 -.00822806  00000+0 -58492-1 0  9992
2 63729  51.8896 333.8970 0007428  74.6437  75.3537 15.06803977 15924
KUIPER-00014            
1 63730U 25088G   25220.58335648 -.00011965  00000+0 -78376-3 0  9992
2 63730  51.8842 333.0310 0009717 117.6627  33.8507 15.06410865 15789
KUIPER-00015            
1 63731U 25088H   25219.88446112  .00000337  00000+0  71758-4 0  9990
2 63731  51.9001 346.8795 0011464  94.3335 265.8938 14.81125401 15995
